ZACUBE-1 (TSHEPISOSAT)  
1 39417U 13066B   25151.42656501  .00005393  00000+0  46908-3 0  9992
2 39417  97.7798 108.4890 0046326  83.0802 277.5686 14.96549787623546
GOMX-1                  
1 39430U 13066Q   25151.89530641  .00001712  00000+0  27269-3 0  9994
2 39430  97.6842  11.0929 0131483 219.7748 139.3762 14.67601057614130
CUBEBUG-2 (LO-74)       
1 39440U 13066AA  25151.40947159  .00002988  00000+0  30614-3 0  9992
2 39440  97.8495  96.0342 0061113 209.0357 150.7457 14.89871228620070
FUNCUBE-1 (AO-73)       
1 39444U 13066AE  25151.82147111  .00007055  00000+0  52899-3 0  9991
2 39444  97.7840 113.7019 0044260  58.3199 302.2330 15.02194992622863
UWE-3                   
1 39446U 13066AG  25151.82314456  .00003686  00000+0  35182-3 0  9993
2 39446  97.8242 102.7964 0054171 146.4533 214.0136 14.92825387621198
UNISAT-6                
1 40012U 14033C   25151.85627772  .00003310  00000+0  38550-3 0  9996
2 40012  97.7420 308.2915 0046583 242.5391 117.1083 14.85155763589501
DUCHIFAT-1              
1 40021U 14033M   25151.55586084  .00017675  00000+0  64525-3 0  9993
2 40021  98.0953 165.1120 0008043   3.5200 356.6092 15.28173610596942
QB50P1                  
1 40025U 14033R   25151.86387948  .00007209  00000+0  44290-3 0  9998
2 40025  98.0829 133.9731 0012446  85.9105 274.3545 15.10346788595834
LILACSAT-2              
1 40908U 15049K   25151.76583428  .00010330  00000+0  27197-3 0  9992
2 40908  97.5061 171.9009 0009351 179.9196 180.2053 15.38698126536875
FOX-1A (AO-85)          
1 40967U 15058D   25151.86229013  .00002764  00000+0  25098-3 0  9995
2 40967  64.7768  21.3911 0162305 198.3042 161.2188 14.87956848 56779
CAS-2T & KS-1Q          
1 41847U 16066G   25151.46239015  .00001405  00000+0  20912-3 0  9993
2 41847  98.4203 226.0044 0345758 205.9096 152.4424 14.43445864449702
ZHUHAI-1 02 (CAS-4B)    
1 42759U 17034B   25151.83979285  .00059571  00000+0  65185-3 0  9991
2 42759  43.0080  13.9351 0020929 233.7735 126.1195 15.62176314441233
ZHUHAI-1 01 (CAS-4A)    
1 42761U 17034D   25151.87984786  .00065437  00000+0  68122-3 0  9992
2 42761  43.0121  10.9449 0022356 237.9120 121.9574 15.63371729441262
RADFXSAT (FOX-1B)       
1 43017U 17073E   25151.61515670  .00005874  00000+0  30399-3 0  9998
2 43017  97.5247  22.6168 0172563 196.5829 162.9712 15.04555267407863
