[
  {
    "OBJECT_NAME": "ZACUBE-1 (TSHEPISOSAT)",
    "OBJECT_ID": "2013-066B",
    "EPOCH": "2025-05-31T10:14:15.216864",
    "MEAN_MOTION": 14.96549787,
    "ECCENTRICITY": 0.0046326,
    "INCLINATION": 97.7798,
    "RA_OF_ASC_NODE": 108.489,
    "ARG_OF_PERICENTER": 83.0802,
    "MEAN_ANOMALY": 277.5686,
    "EPHEMERIS_TYPE": 0,
    "CLASSIFICATION_TYPE": "U",
    "NORAD_CAT_ID": 39417,
    "ELEMENT_SET_NO": 999,
    "REV_AT_EPOCH": 62354,
    "BSTAR": 0.00046908,
    "MEAN_MOTION_DOT": 5.393e-05,
    "MEAN_MOTION_DDOT": 0
  },
  {
    "OBJECT_NAME": "GOMX-1",
    "OBJECT_ID": "2013-066Q",
    "EPOCH": "2025-05-31T21:29:14.473824",
    "MEAN_MOTION": 14.67601057,
    "ECCENTRICITY": 0.0131483,
    "INCLINATION": 97.6842,
    "RA_OF_ASC_NODE": 11.0929,
    "ARG_OF_PERICENTER": 219.7748,
    "MEAN_ANOMALY": 139.3762,
    "EPHEMERIS_TYPE": 0,
    "CLASSIFICATION_TYPE": "U",
    "NORAD_CAT_ID": 39430,
    "ELEMENT_SET_NO": 999,
    "REV_AT_EPOCH": 61413,
    "BSTAR": 0.00027269,
    "MEAN_MOTION_DOT": 1.712e-05,
    "MEAN_MOTION_DDOT": 0
  },
  {
    "OBJECT_NAME": "CUBEBUG-2 (LO-74)",
    "OBJECT_ID": "2013-066AA",
    "EPOCH": "2025-05-31T09:49:38.345376",
    "MEAN_MOTION": 14.89871228,
    "ECCENTRICITY": 0.0061113,
    "INCLINATION": 97.8495,
    "RA_OF_ASC_NODE": 96.0342,
    "ARG_OF_PERICENTER": 209.0357,
    "MEAN_ANOMALY": 150.7457,
    "EPHEMERIS_TYPE": 0,
    "CLASSIFICATION_TYPE": "U",
    "NORAD_CAT_ID": 39440,
    "ELEMENT_SET_NO": 999,
    "REV_AT_EPOCH": 62007,
    "BSTAR": 0.00030614,
    "MEAN_MOTION_DOT": 2.988e-05,
    "MEAN_MOTION_DDOT": 0
  },
  {
    "OBJECT_NAME": "FUNCUBE-1 (AO-73)",
    "OBJECT_ID": "2013-066AE",
    "EPOCH": "2025-05-31T19:42:55.103904",
    "MEAN_MOTION": 15.02194992,
    "ECCENTRICITY": 0.004426,
    "INCLINATION": 97.784,
    "RA_OF_ASC_NODE": 113.7019,
    "ARG_OF_PERICENTER": 58.3199,
    "MEAN_ANOMALY": 302.233,
    "EPHEMERIS_TYPE": 0,
    "CLASSIFICATION_TYPE": "U",
    "NORAD_CAT_ID": 39444,
    "ELEMENT_SET_NO": 999,
    "REV_AT_EPOCH": 62286,
    "BSTAR": 0.00052899,
    "MEAN_MOTION_DOT": 7.055e-05,
    "MEAN_MOTION_DDOT": 0
  },
  {
    "OBJECT_NAME": "UWE-3",
    "OBJECT_ID": "2013-066AG",
    "EPOCH": "2025-05-31T19:45:19.689984",
    "MEAN_MOTION": 14.92825387,
    "ECCENTRICITY": 0.0054171,
    "INCLINATION": 97.8242,
    "RA_OF_ASC_NODE": 102.7964,
    "ARG_OF_PERICENTER": 146.4533,
    "MEAN_ANOMALY": 214.0136,
    "EPHEMERIS_TYPE": 0,
    "CLASSIFICATION_TYPE": "U",
    "NORAD_CAT_ID": 39446,
    "ELEMENT_SET_NO": 999,
    "REV_AT_EPOCH": 62119,
    "BSTAR": 0.00035182,
    "MEAN_MOTION_DOT": 3.686e-05,
    "MEAN_MOTION_DDOT": 0
  },
  {
    "OBJECT_NAME": "UNISAT-6",
    "OBJECT_ID": "2014-033C",
    "EPOCH": "2025-05-31T20:33:02.395008",
    "MEAN_MOTION": 14.85155763,
    "ECCENTRICITY": 0.0046583,
    "INCLINATION": 97.742,
    "RA_OF_ASC_NODE": 308.2915,
    "ARG_OF_PERICENTER": 242.5391,
    "MEAN_ANOMALY": 117.1083,
    "EPHEMERIS_TYPE": 0,
    "CLASSIFICATION_TYPE": "U",
    "NORAD_CAT_ID": 40012,
    "ELEMENT_SET_NO": 999,
    "REV_AT_EPOCH": 58950,
    "BSTAR": 0.0003855,
    "MEAN_MOTION_DOT": 3.31e-05,
    "MEAN_MOTION_DDOT": 0
  },
  {
    "OBJECT_NAME": "DUCHIFAT-1",
    "OBJECT_ID": "2014-033M",
    "EPOCH": "2025-05-31T13:20:26.376576",
    "MEAN_MOTION": 15.2817361,
    "ECCENTRICITY": 0.0008043,
    "INCLINATION": 98.0953,
    "RA_OF_ASC_NODE": 165.112,
    "ARG_OF_PERICENTER": 3.52,
    "MEAN_ANOMALY": 356.6092,
    "EPHEMERIS_TYPE": 0,
    "CLASSIFICATION_TYPE": "U",
    "NORAD_CAT_ID": 40021,
    "ELEMENT_SET_NO": 999,
    "REV_AT_EPOCH": 59694,
    "BSTAR": 0.00064525,
    "MEAN_MOTION_DOT": 0.00017675,
    "MEAN_MOTION_DDOT": 0
  },
  {
    "OBJECT_NAME": "QB50P1",
    "OBJECT_ID": "2014-033R",
    "EPOCH": "2025-05-31T20:43:59.187072",
    "MEAN_MOTION": 15.10346788,
    "ECCENTRICITY": 0.0012446,
    "INCLINATION": 98.0829,
    "RA_OF_ASC_NODE": 133.9731,
    "ARG_OF_PERICENTER": 85.9105,
    "MEAN_ANOMALY": 274.3545,
    "EPHEMERIS_TYPE": 0,
    "CLASSIFICATION_TYPE": "U",
    "NORAD_CAT_ID": 40025,
    "ELEMENT_SET_NO": 999,
    "REV_AT_EPOCH": 59583,
    "BSTAR": 0.0004429,
    "MEAN_MOTION_DOT": 7.209e-05,
    "MEAN_MOTION_DDOT": 0
  },
  {
    "OBJECT_NAME": "LILACSAT-2",
    "OBJECT_ID": "2015-049K",
    "EPOCH": "2025-05-31T18:22:48.081792",
    "MEAN_MOTION": 15.38698126,
    "ECCENTRICITY": 0.0009351,
    "INCLINATION": 97.5061,
    "RA_OF_ASC_NODE": 171.9009,
    "ARG_OF_PERICENTER": 179.9196,
    "MEAN_ANOMALY": 180.2053,
    "EPHEMERIS_TYPE": 0,
    "CLASSIFICATION_TYPE": "U",
    "NORAD_CAT_ID": 40908,
    "ELEMENT_SET_NO": 999,
    "REV_AT_EPOCH": 53687,
    "BSTAR": 0.00027197,
    "MEAN_MOTION_DOT": 0.0001033,
    "MEAN_MOTION_DDOT": 0
  },
  {
    "OBJECT_NAME": "FOX-1A (AO-85)",
    "OBJECT_ID": "2015-058D",
    "EPOCH": "2025-05-31T20:41:41.867232",
    "MEAN_MOTION": 14.87956848,
    "ECCENTRICITY": 0.0162305,
    "INCLINATION": 64.7768,
    "RA_OF_ASC_NODE": 21.3911,
    "ARG_OF_PERICENTER": 198.3042,
    "MEAN_ANOMALY": 161.2188,
    "EPHEMERIS_TYPE": 0,
    "CLASSIFICATION_TYPE": "U",
    "NORAD_CAT_ID": 40967,
    "ELEMENT_SET_NO": 999,
    "REV_AT_EPOCH": 5677,
    "BSTAR": 0.00025098,
    "MEAN_MOTION_DOT": 2.764e-05,
    "MEAN_MOTION_DDOT": 0
  },
  {
    "OBJECT_NAME": "CAS-2T & KS-1Q",
    "OBJECT_ID": "2016-066G",
    "EPOCH": "2025-05-31T11:05:50.508960",
    "MEAN_MOTION": 14.43445864,
    "ECCENTRICITY": 0.0345758,
    "INCLINATION": 98.4203,
    "RA_OF_ASC_NODE": 226.0044,
    "ARG_OF_PERICENTER": 205.9096,
    "MEAN_ANOMALY": 152.4424,
    "EPHEMERIS_TYPE": 0,
    "CLASSIFICATION_TYPE": "U",
    "NORAD_CAT_ID": 41847,
    "ELEMENT_SET_NO": 999,
    "REV_AT_EPOCH": 44970,
    "BSTAR": 0.00020912,
    "MEAN_MOTION_DOT": 1.405e-05,
    "MEAN_MOTION_DDOT": 0
  },
  {
    "OBJECT_NAME": "ZHUHAI-1 02 (CAS-4B)",
    "OBJECT_ID": "2017-034B",
    "EPOCH": "2025-05-31T20:09:18.102240",
    "MEAN_MOTION": 15.62176314,
    "ECCENTRICITY": 0.0020929,
    "INCLINATION": 43.008,
    "RA_OF_ASC_NODE": 13.9351,
    "ARG_OF_PERICENTER": 233.7735,
    "MEAN_ANOMALY": 126.1195,
    "EPHEMERIS_TYPE": 0,
    "CLASSIFICATION_TYPE": "U",
    "NORAD_CAT_ID": 42759,
    "ELEMENT_SET_NO": 999,
    "REV_AT_EPOCH": 44123,
    "BSTAR": 0.00065185,
    "MEAN_MOTION_DOT": 0.00059571,
    "MEAN_MOTION_DDOT": 0
  },
  {
    "OBJECT_NAME": "ZHUHAI-1 01 (CAS-4A)",
    "OBJECT_ID": "2017-034D",
    "EPOCH": "2025-05-31T21:06:58.855104",
    "MEAN_MOTION": 15.63371729,
    "ECCENTRICITY": 0.0022356,
    "INCLINATION": 43.0121,
    "RA_OF_ASC_NODE": 10.9449,
    "ARG_OF_PERICENTER": 237.912,
    "MEAN_ANOMALY": 121.9574,
    "EPHEMERIS_TYPE": 0,
    "CLASSIFICATION_TYPE": "U",
    "NORAD_CAT_ID": 42761,
    "ELEMENT_SET_NO": 999,
    "REV_AT_EPOCH": 44126,
    "BSTAR": 0.00068122,
    "MEAN_MOTION_DOT": 0.00065437,
    "MEAN_MOTION_DDOT": 0
  },
  {
    "OBJECT_NAME": "RADFXSAT (FOX-1B)",
    "OBJECT_ID": "2017-073E",
    "EPOCH": "2025-05-31T14:45:49.538880",
    "MEAN_MOTION": 15.04555267,
    "ECCENTRICITY": 0.0172563,
    "INCLINATION": 97.5247,
    "RA_OF_ASC_NODE": 22.6168,
    "ARG_OF_PERICENTER": 196.5829,
    "MEAN_ANOMALY": 162.9712,
    "EPHEMERIS_TYPE": 0,
    "CLASSIFICATION_TYPE": "U",
    "NORAD_CAT_ID": 43017,
    "ELEMENT_SET_NO": 999,
    "REV_AT_EPOCH": 40786,
    "BSTAR": 0.00030399,
    "MEAN_MOTION_DOT": 5.874e-05,
    "MEAN_MOTION_DDOT": 0
  }
]